CTC2_L_00273016-03
1 58716U 25266SQ  26070.40846065  .00000000  00000+0  00000-0 0  9995
2 58716 100.0000 180.0000 0000000   0.0000   0.0000 13.98210060    10
CTC2_L_00273016-04
1 58717U 24485V   26070.40846065  .00000000  00000+0  00000-0 0  9998
2 58717 100.0000 180.0000 0000000   0.0000  90.0000 13.98210060    10
CTC2_L_00273017-01
1 58718U 24721HV  26070.40846065  .00000000  00000+0  00000-0 0  9992
2 58718 100.0000 192.0000 0000000   0.0000 192.0000 13.98210060    17
CTC2_L_00273017-02
1 58719U 23429N   26070.40846065  .00000000  00000+0  00000-0 0  9997
2 58719 100.0000 192.0000 0000000   0.0000 282.0000 13.98210060    18
CTC2_L_00273017-03
1 58720U 26804LZ  26070.40846065  .00000000  00000+0  00000-0 0  9999
2 58720 100.0000 192.0000 0000000   0.0000  12.0000 13.98210060    11
CTC2_L_00273017-04
1 58721U 26663BX  26070.40846065  .00000000  00000+0  00000-0 0  9993
2 58721 100.0000 192.0000 0000000   0.0000 102.0000 13.98210060    12
CTC2_L_00273018-01
1 58722U 24505RS  26070.40846065  .00000000  00000+0  00000-0 0  9997
2 58722 100.0000 204.0000 0000000   0.0000 204.0000 13.98210060    10
CTC2_L_00273018-02
1 58723U 24369XM  26070.40846065  .00000000  00000+0  00000-0 0  9996
2 58723 100.0000 204.0000 0000000   0.0000 294.0000 13.98210060    10
CTC2_L_00273018-03
1 58724U 26759JG  26070.40846065  .00000000  00000+0  00000-0 0  9992
2 58724 100.0000 204.0000 0000000   0.0000  24.0000 13.98210060    12
CTC2_L_00273018-04
1 58725U 23582QA  26070.40846065  .00000000  00000+0  00000-0 0  9994
2 58725 100.0000 204.0000 0000000   0.0000 114.0000 13.98210060    13
CTC2_L_00273019-01
1 58726U 23708IP  26070.40846065  .00000000  00000+0  00000-0 0  9995
2 58726 100.0000 216.0000 0000000   0.0000 216.0000 13.98210060    10
CTC2_L_00273019-02
1 58727U 26465IE  26070.40846065  .00000000  00000+0  00000-0 0  9999
2 58727 100.0000 216.0000 0000000   0.0000 306.0000 13.98210060    11
CTC2_L_00273019-03
1 58728U 26284UF  26070.40846065  .00000000  00000+0  00000-0 0  9999
2 58728 100.0000 216.0000 0000000   0.0000  36.0000 13.98210060    12
CTC2_L_00273019-04
1 58729U 26988IT  26070.40846065  .00000000  00000+0  00000-0 0  9991
2 58729 100.0000 216.0000 0000000   0.0000 126.0000 13.98210060    13
CTC2_L_00273020-01
1 58730U 22727HU  26070.40846065  .00000000  00000+0  00000-0 0  9990
2 58730 100.0000 228.0000 0000000   0.0000 228.0000 13.98210060    11
CTC2_L_00273020-02
1 58731U 25481BO  26070.40846065  .00000000  00000+0  00000-0 0  9991
2 58731 100.0000 228.0000 0000000   0.0000 318.0000 13.98210060    12
CTC2_L_00273020-03
1 58732U 22881BE  26070.40846065  .00000000  00000+0  00000-0 0  9993
2 58732 100.0000 228.0000 0000000   0.0000  48.0000 13.98210060    13
CTC2_L_00273020-04
1 58733U 22048OY  26070.40846065  .00000000  00000+0  00000-0 0  9999
2 58733 100.0000 228.0000 0000000   0.0000 138.0000 13.98210060    14
CTC2_L_00273021-01
1 58734U 25800JV  26070.40846065  .00000000  00000+0  00000-0 0  9999
2 58734 100.0000 240.0000 0000000   0.0000 240.0000 13.98210060    13
CTC2_L_00273021-02
1 58735U 24090H   26070.40846065  .00000000  00000+0  00000-0 0  9990
2 58735 100.0000 240.0000 0000000   0.0000 330.0000 13.98210060    14
CTC2_L_00273021-03
1 58736U 24551NA  26070.40846065  .00000000  00000+0  00000-0 0  9993
2 58736 100.0000 240.0000 0000000   0.0000  60.0000 13.98210060    15
CTC2_L_00273021-04
1 58737U 26061RX  26070.40846065  .00000000  00000+0  00000-0 0  9992
2 58737 100.0000 240.0000 0000000   0.0000 150.0000 13.98210060    16
CTC2_L_00273022-01
1 58738U 25480A   26070.40846065  .00000000  00000+0  00000-0 0  9997
2 58738 100.0000 252.0000 0000000   0.0000 252.0000 13.98210060    13
CTC2_L_00273022-02
1 58739U 25286HS  26070.40846065  .00000000  00000+0  00000-0 0  9992
2 58739 100.0000 252.0000 0000000   0.0000 342.0000 13.98210060    14
CTC2_L_00273022-03
1 58740U 24560WI  26070.40846065  .00000000  00000+0  00000-0 0  9998
2 58740 100.0000 252.0000 0000000   0.0000  72.0000 13.98210060    16
CTC2_L_00273022-04
1 58741U 25344DT  26070.40846065  .00000000  00000+0  00000-0 0  9990
2 58741 100.0000 252.0000 0000000   0.0000 162.0000 13.98210060    17
CTC2_L_00273023-01
1 58742U 25952OP  26070.40846065  .00000000  00000+0  00000-0 0  9996
2 58742 100.0000 264.0000 0000000   0.0000 264.0000 13.98210060    14
CTC2_L_00273023-02
1 58743U 25241PY  26070.40846065  .00000000  00000+0  00000-0 0  9998
2 58743 100.0000 264.0000 0000000   0.0000 354.0000 13.98210060    15
CTC2_L_00273023-03
1 58744U 22276RN  26070.40846065  .00000000  00000+0  00000-0 0  9994
2 58744 100.0000 264.0000 0000000   0.0000  84.0000 13.98210060    16
CTC2_L_00273023-04
1 58745U 23041AE  26070.40846065  .00000000  00000+0  00000-0 0  9996
2 58745 100.0000 264.0000 0000000   0.0000 174.0000 13.98210060    17
CTC2_L_00273024-01
1 58746U 26696UN  26070.40846065  .00000000  00000+0  00000-0 0  9996
2 58746 100.0000 276.0000 0000000   0.0000 276.0000 13.98210060    14
CTC2_L_00273024-02
1 58747U 22708WQ  26070.40846065  .00000000  00000+0  00000-0 0  9997
2 58747 100.0000 276.0000 0000000   0.0000   6.0000 13.98210060    16
CTC2_L_00273024-03
1 58748U 22546SM  26070.40846065  .00000000  00000+0  00000-0 0  9998
2 58748 100.0000 276.0000 0000000   0.0000  96.0000 13.98210060    16
CTC2_L_00273024-04
1 58749U 25670SO  26070.40846065  .00000000  00000+0  00000-0 0  9990
2 58749 100.0000 276.0000 0000000   0.0000 186.0000 13.98210060    17
CTC2_L_00273025-01
1 58750U 26994GV  26070.40846065  .00000000  00000+0  00000-0 0  9992
2 58750 100.0000 288.0000 0000000   0.0000 288.0000 13.98210060    15
CTC2_L_00273025-02
1 58751U 26284XK  26070.40846065  .00000000  00000+0  00000-0 0  9995
2 58751 100.0000 288.0000 0000000   0.0000  18.0000 13.98210060    17
CTC2_L_00273025-03
1 58752U 23551NG  26070.40846065  .00000000  00000+0  00000-0 0  9990
2 58752 100.0000 288.0000 0000000   0.0000 108.0000 13.98210060    18
CTC2_L_00273025-04
1 58753U 22233QG  26070.40846065  .00000000  00000+0  00000-0 0  9997
2 58753 100.0000 288.0000 0000000   0.0000 198.0000 13.98210060    18
CTC2_L_00273026-01
1 58754U 24250UU  26070.40846065  .00000000  00000+0  00000-0 0  9999
2 58754 100.0000 300.0000 0000000   0.0000 300.0000 13.98210060    19
CTC2_L_00273026-02
1 58755U 24207UQ  26070.40846065  .00000000  00000+0  00000-0 0  9992
2 58755 100.0000 300.0000 0000000   0.0000  30.0000 13.98210060    10
CTC2_L_00273026-03
1 58756U 24583EV  26070.40846065  .00000000  00000+0  00000-0 0  9990
2 58756 100.0000 300.0000 0000000   0.0000 120.0000 13.98210060    11
CTC2_L_00273026-04
1 58757U 26431BZ  26070.40846065  .00000000  00000+0  00000-0 0  9995
2 58757 100.0000 300.0000 0000000   0.0000 210.0000 13.98210060    12
CTC2_L_00273027-01
1 58758U 22189HH  26070.40846065  .00000000  00000+0  00000-0 0  9992
2 58758 100.0000 312.0000 0000000   0.0000 312.0000 13.98210060    19
CTC2_L_00273027-02
1 58759U 25344RZ  26070.40846065  .00000000  00000+0  00000-0 0  9999
2 58759 100.0000 312.0000 0000000   0.0000  42.0000 13.98210060    10
CTC2_L_00273027-03
1 58760U 24253AD  26070.40846065  .00000000  00000+0  00000-0 0  9999
2 58760 100.0000 312.0000 0000000   0.0000 132.0000 13.98210060    12
CTC2_L_00273027-04
1 58761U 24160JP  26070.40846065  .00000000  00000+0  00000-0 0  9997
2 58761 100.0000 312.0000 0000000   0.0000 222.0000 13.98210060    13
CTC2_L_00273028-01
1 58762U 23400BZ  26070.40846065  .00000000  00000+0  00000-0 0  9994
2 58762 100.0000 324.0000 0000000   0.0000 324.0000 13.98210060    10
CTC2_L_00273028-02
1 58763U 26733KE  26070.40846065  .00000000  00000+0  00000-0 0  9997
2 58763 100.0000 324.0000 0000000   0.0000  54.0000 13.98210060    11
CTC2_L_00273028-03
1 58764U 23620HZ  26070.40846065  .00000000  00000+0  00000-0 0  9990
2 58764 100.0000 324.0000 0000000   0.0000 144.0000 13.98210060    12
CTC2_L_00273028-04
1 58765U 26107VC  26070.40846065  .00000000  00000+0  00000-0 0  9994
2 58765 100.0000 324.0000 0000000   0.0000 234.0000 13.98210060    13
CTC2_L_00273029-01
1 58766U 23465IX  26070.40846065  .00000000  00000+0  00000-0 0  9999
2 58766 100.0000 336.0000 0000000   0.0000 336.0000 13.98210060    10
CTC2_L_00273029-02
1 58767U 23752UB  26070.40846065  .00000000  00000+0  00000-0 0  9999
2 58767 100.0000 336.0000 0000000   0.0000  66.0000 13.98210060    11
CTC2_L_00273029-03
1 58768U 23825AS  26070.40846065  .00000000  00000+0  00000-0 0  9991
2 58768 100.0000 336.0000 0000000   0.0000 156.0000 13.98210060    12
CTC2_L_00273029-04
1 58769U 25454AY  26070.40846065  .00000000  00000+0  00000-0 0  9992
2 58769 100.0000 336.0000 0000000   0.0000 246.0000 13.98210060    13
CTC2_L_00273030-01
1 58770U 22820NM  26070.40846065  .00000000  00000+0  00000-0 0  9998
2 58770 100.0000 348.0000 0000000   0.0000 348.0000 13.98210060    11
CTC2_L_00273030-02
1 58771U 22690YD  26070.40846065  .00000000  00000+0  00000-0 0  9994
2 58771 100.0000 348.0000 0000000   0.0000  78.0000 13.98210060    12
CTC2_L_00273030-03
1 58772U 25125WN  26070.40846065  .00000000  00000+0  00000-0 0  9991
2 58772 100.0000 348.0000 0000000   0.0000 168.0000 13.98210060    13
CTC2_L_00273030-04
1 58773U 26560LF  26070.40846065  .00000000  00000+0  00000-0 0  9996
2 58773 100.0000 348.0000 0000000   0.0000 258.0000 13.98210060    14
